STARLINK-2386_new
1 17805C 21018U   21326.19374471  .00005914  00000-0  39619-3 0  3260
2 17805  53.0548  72.8587 0001093  77.9967 158.1842 15.06395272    16
STARLINK-2386_old
1 27805C 21018U   21325.14377391  .00003540  00000-0  23727-3 0  3253
2 27805  53.0551  77.5717 0001126  80.2124 218.8147 15.06385977    19
